0 GGSE 3
1 01292U 65016C   13282.14802822  .00000080  00000-0  90043-4 0  6507
2 01292 070.0780 178.8610 0022075 324.0367 199.4010 14.00009830476163
0 GGSE 3
1 01292U 65016C   13283.14836487  .00000161  00000-0  14505-3 0  6511
2 01292 070.0779 176.7162 0022117 322.8443 201.0057 14.00009544476307
0 GGSE 3
1 01292U 65016C   13285.77063016  .00000168  00000-0  14968-3 0  6534
2 01292 070.0775 171.0941 0022225 319.7309 096.9590 14.00010171476673
0 GGSE 3
1 01292U 65016C   13286.84519531  .00000118  00000-0  11626-3 0  6545
2 01292 070.0773 168.7902 0022263 318.4749 112.6384 14.00011108476822
0 GGSE 3
1 01292U 65016C   13287.84583981  .00000084  00000-0  93216-4 0  6555
2 01292 070.0771 166.6447 0022287 317.2931 115.7812 14.00012238476967
0 GGSE 3
1 01292U 65016C   13288.99367730  .00000095  00000-0  10045-3 0  6565
2 01292 070.0768 164.1837 0022324 315.9243 140.7810 14.00013045477124
0 GGSE 3
1 01292U 65016C   13290.21669228  .00000148  00000-0  13650-3 0  6575
2 01292 070.0766 161.5614 0022365 314.4850 184.6556 14.00013068477296
0 GGSE 3
1 01292U 65016C   13291.78321685  .00000215  00000-0  18186-3 0  6585
2 01292 070.0765 158.2026 0022408 312.6244 159.8055 14.00012995477511
0 GGSE 3
1 01292U 65016C   13292.84800995  .00000219  00000-0  18434-3 0  6590
2 01292 070.0765 155.9195 0022433 311.3660 126.2636 14.00013353477666
0 GGSE 3
1 01292U 65016C   13293.84891995  .00000184  00000-0  16045-3 0  6600
2 01292 070.0765 153.7733 0022469 310.2147 130.7243 14.00014227477808
0 GGSE 3
1 01292U 65016C   13295.14821769  .00000115  00000-0  11366-3 0  6613
2 01292 070.0764 150.9874 0022515 308.7059 199.0374 14.00015575477987
